NORAD_CAT_ID,OBJECT_NAME,OBJECT_TYPE,EPOCH,MEAN_MOTION,ECCENTRICITY,INCLINATION,RA_OF_ASC_NODE,ARG_OF_PERICENTER,MEAN_ANOMALY,BSTAR,MEAN_MOTION_DOT,MEAN_MOTION_DDOT,TLE_LINE0,TLE_LINE1,TLE_LINE2,SEMIMAJOR_AXIS,PERIOD,APOGEE,PERIGEE,DECAYED
53272.0,STARLINK-4122,PAYLOAD,2023-06-27 11:10:45,15.08842156,0.0001001,53.2173,291.4535,104.3811,255.7292,0.00021861,3.193e-05,0.0,0 STARLINK-4122,1 53272U 22086AG  23178.46580227  .00003193  00000-0  21861-3 0  9999,2 53272  53.2173 291.4535 0001001 104.3811 255.7292 15.08842156 52134,6917.874,95.437,540.431,539.046,0.0
53272.0,STARLINK-4122,PAYLOAD,2023-06-28 14:12:18,15.08842967,9.84e-05,53.2174,286.3989,94.4779,265.6326,0.0001489,2.083e-05,0.0,0 STARLINK-4122,1 53272U 22086AG  23179.59188223  .00002083  00000-0  14890-3 0  9995,2 53272  53.2174 286.3989 0000984  94.4779 265.6326 15.08842967 52309,6917.871,95.437,540.417,539.056,0.0
53272.0,STARLINK-4122,PAYLOAD,2023-06-29 12:27:42,15.08838806,8.61e-05,53.2173,282.2364,85.239,274.87,-1.8823e-06,-3.18e-06,0.0,0 STARLINK-4122,1 53272U 22086AG  23180.51924377 -.00000318  00000-0 -18823-5 0  9990,2 53272  53.2173 282.2364 0000861  85.2390 274.8700 15.08838806 52441,6917.884,95.438,540.345,539.153,0.0
53272.0,STARLINK-4122,PAYLOAD,2023-06-30 13:53:52,15.08848799,8.14e-05,53.2166,277.4785,92.7736,267.3349,0.00019812,2.868e-05,0.0,0 STARLINK-4122,1 53272U 22086AG  23181.57907895  .00002868  00000-0  19812-3 0  9990,2 53272  53.2166 277.4785 0000814  92.7736 267.3349 15.08848799 52607,6917.853,95.437,540.282,539.155,0.0
53272.0,STARLINK-4122,PAYLOAD,2023-06-30 23:26:11,15.08841076,9.02e-05,53.2165,275.6933,92.21,267.8996,6.3229e-05,7.19e-06,0.0,0 STARLINK-4122,1 53272U 22086AG  23181.97652181  .00000719  00000-0  63229-4 0  9994,2 53272  53.2165 275.6933 0000902  92.2100 267.8996 15.08841076 52669,6917.877,95.437,540.366,539.118,0.0
53272.0,STARLINK-4122,PAYLOAD,2023-07-01 07:23:07,15.08833887,0.0001054,53.2172,274.207,89.8305,270.2808,-1.238e-05,-4.85e-06,0.0,0 STARLINK-4122,1 53272U 22086AG  23182.30772625 -.00000485  00000-0 -12380-4 0  9992,2 53272  53.2172 274.2070 0001054  89.8305 270.2808 15.08833887 52719,6917.899,95.438,540.493,539.035,0.0
53272.0,STARLINK-4122,PAYLOAD,2023-07-02 10:24:40,15.08840892,9.13e-05,53.2173,269.1516,86.4021,273.7075,8.3589e-05,1.043e-05,0.0,0 STARLINK-4122,1 53272U 22086AG  23183.43380779  .00001043  00000-0  83589-4 0  9990,2 53272  53.2173 269.1516 0000913  86.4021 273.7075 15.08840892 52885,6917.878,95.437,540.374,539.111,0.0
53272.0,STARLINK-4122,PAYLOAD,2023-07-03 11:50:50,15.08845665,8.29e-05,53.2169,264.3937,84.4795,275.6291,0.00016106,2.277e-05,0.0,0 STARLINK-4122,1 53272U 22086AG  23184.49364267  .00002277  00000-0  16106-3 0  9991,2 53272  53.2169 264.3937 0000829  84.4795 275.6291 15.08845665 53049,6917.863,95.437,540.302,539.155,0.0
53272.0,STARLINK-4122,PAYLOAD,2023-07-04 11:41:38,15.08840845,7.62e-05,53.2163,259.9327,86.38,273.7279,5.1276e-05,5.29e-06,0.0,0 STARLINK-4122,1 53272U 22086AG  23185.48724747  .00000529  00000-0  51276-4 0  9990,2 53272  53.2163 259.9327 0000762  86.3800 273.7279 15.08840845 53196,6917.878,95.438,540.27,539.216,0.0
53272.0,STARLINK-4122,PAYLOAD,2023-07-06 11:23:12,15.08839417,7.68e-05,53.2167,251.0125,87.7695,272.3385,8.2591e-05,1.027e-05,0.0,0 STARLINK-4122,1 53272U 22086AG  23187.47444918  .00001027  00000-0  82591-4 0  9998,2 53272  53.2167 251.0125 0000768  87.7695 272.3385 15.08839417 53491,6917.882,95.438,540.278,539.216,0.0
53272.0,STARLINK-4122,PAYLOAD,2023-07-07 20:46:18,15.08841951,7.57e-05,53.2164,244.7679,84.2993,275.8085,0.00010217,1.339e-05,0.0,0 STARLINK-4122,1 53272U 22086AG  23188.86548867  .00001339  00000-0  10217-3 0  9991,2 53272  53.2164 244.7679 0000757  84.2993 275.8085 15.08841951 53707,6917.874,95.437,540.263,539.216,0.0
53272.0,STARLINK-4122,PAYLOAD,2023-07-08 20:37:05,15.08840503,8.23e-05,53.2166,240.3074,88.7671,271.3415,4.8107e-06,-2.11e-06,0.0,0 STARLINK-4122,1 53272U 22086AG  23189.85909233 -.00000211  00000-0  48107-5 0  9999,2 53272  53.2166 240.3074 0000823  88.7671 271.3415 15.08840503 53852,6917.879,95.438,540.313,539.175,0.0
53272.0,STARLINK-4122,PAYLOAD,2023-07-10 02:49:25,15.0883524,7.98e-05,53.2163,234.6571,87.3276,272.7807,4.2226e-05,3.84e-06,0.0,0 STARLINK-4122,1 53272U 22086AG  23191.11765616  .00000384  00000-0  42226-4 0  9991,2 53272  53.2163 234.6571 0000798  87.3276 272.7807 15.08835240 54048,6917.895,95.438,540.312,539.208,0.0
53272.0,STARLINK-4122,PAYLOAD,2023-07-11 09:01:44,15.08842686,8.09e-05,53.2161,229.0074,81.9339,278.1745,0.00010879,1.444e-05,0.0,0 STARLINK-4122,1 53272U 22086AG  23192.37621093  .00001444  00000-0  10879-3 0  9996,2 53272  53.2161 229.0074 0000809  81.9339 278.1745 15.08842686 54239,6917.872,95.437,540.297,539.178,0.0
53272.0,STARLINK-4122,PAYLOAD,2023-07-12 12:03:18,15.08843103,8.34e-05,53.2158,223.9522,77.893,282.2155,5.0881e-05,5.22e-06,0.0,0 STARLINK-4122,1 53272U 22086AG  23193.50229176  .00000522  00000-0  50881-4 0  9992,2 53272  53.2158 223.9522 0000834  77.8930 282.2155 15.08843103 54400,6917.871,95.437,540.313,539.159,0.0
53272.0,STARLINK-4122,PAYLOAD,2023-07-13 11:54:05,15.088311,0.0001014,53.2168,219.4913,84.1251,275.9857,9.016e-05,1.147e-05,0.0,0 STARLINK-4122,1 53272U 22086AG  23194.49589905  .00001147  00000-0  90160-4 0  9998,2 53272  53.2168 219.4913 0001014  84.1251 275.9857 15.08831100 54551,6917.908,95.438,540.474,539.071,0.0
53272.0,STARLINK-4122,PAYLOAD,2023-07-14 18:06:25,15.08838433,9.42e-05,53.2165,213.8412,77.6821,282.4276,2.2522e-05,7.1e-07,0.0,0 STARLINK-4122,1 53272U 22086AG  23195.75445853  .00000071  00000-0  22522-4 0  9993,2 53272  53.2165 213.8412 0000942  77.6821 282.4276 15.08838433 54744,6917.885,95.438,540.402,539.099,0.0
53272.0,STARLINK-4122,PAYLOAD,2023-07-16 09:51:03,15.08836857,9.17e-05,53.2162,206.4068,81.528,278.5816,5.0162e-05,5.11e-06,0.0,0 STARLINK-4122,1 53272U 22086AG  23197.41046227  .00000511  00000-0  50162-4 0  9990,2 53272  53.2162 206.4068 0000917  81.5280 278.5816 15.08836857 54992,6917.89,95.438,540.389,539.121,0.0
53272.0,STARLINK-4122,PAYLOAD,2023-07-17 17:38:46,15.0884096,9.29e-05,53.2165,200.4603,79.089,281.0207,5.8252e-05,6.39e-06,0.0,0 STARLINK-4122,1 53272U 22086AG  23198.73526130  .00000639  00000-0  58252-4 0  9991,2 53272  53.2165 200.4603 0000929  79.0890 281.0207 15.08840960 55192,6917.877,95.437,540.385,539.1,0.0
53272.0,STARLINK-4122,PAYLOAD,2023-07-18 09:32:37,15.08847326,9.27e-05,53.2164,197.4863,78.809,281.3006,0.0001127,1.507e-05,0.0,0 STARLINK-4122,1 53272U 22086AG  23199.39765475  .00001507  00000-0  11270-3 0  9994,2 53272  53.2164 197.4863 0000927  78.8090 281.3006 15.08847326 55295,6917.858,95.437,540.364,539.082,0.0
53272.0,STARLINK-4122,PAYLOAD,2023-07-19 09:23:24,15.08840081,9.63e-05,53.2165,193.0254,83.8081,276.302,5.2353e-05,5.46e-06,0.0,0 STARLINK-4122,1 53272U 22086AG  23200.39126083  .00000546  00000-0  52353-4 0  9993,2 53272  53.2165 193.0254 0000963  83.8081 276.3020 15.08840081 55446,6917.88,95.438,540.411,539.079,0.0
53272.0,STARLINK-4122,PAYLOAD,2023-07-20 23:32:40,15.08836915,0.0001002,53.2167,185.8885,89.9437,270.1669,3.5207e-05,2.73e-06,0.0,0 STARLINK-4122,1 53272U 22086AG  23201.98102336  .00000273  00000-0  35207-4 0  9990,2 53272  53.2167 185.8885 0001002  89.9437 270.1669 15.08836915 55682,6917.89,95.438,540.448,539.062,0.0
53272.0,STARLINK-4122,PAYLOAD,2023-07-24 07:01:57,15.08837537,9.43e-05,53.2162,171.0213,93.0973,267.0127,2.4486e-05,1.02e-06,0.0,0 STARLINK-4122,1 53272U 22086AG  23205.29303056  .00000102  00000-0  24486-4 0  9998,2 53272  53.2162 171.0213 0000943  93.0973 267.0127 15.08837537 56364,6917.888,95.438,540.405,539.101,0.0
53272.0,STARLINK-4122,PAYLOAD,2023-07-25 06:52:45,15.08837976,0.0001307,53.2184,166.5603,77.9643,282.1496,3.1097e-05,2.07e-06,0.0,0 STARLINK-4122,1 53272U 22086AG  23206.28663380  .00000207  00000-0  31097-4 0  9999,2 53272  53.2184 166.5603 0001307  77.9643 282.1496 15.08837976 56511,6917.887,95.438,540.656,538.847,0.0
53272.0,STARLINK-4122,PAYLOAD,2023-07-26 01:57:22,15.08845533,0.0001073,53.2171,162.9923,83.2695,276.8419,9.1735e-05,1.173e-05,0.0,0 STARLINK-4122,1 53272U 22086AG  23207.08150624  .00001173  00000-0  91735-4 0  9998,2 53272  53.2171 162.9923 0001073  83.2695 276.8419 15.08845533 56635,6917.863,95.437,540.471,538.986,0.0
53272.0,STARLINK-4122,PAYLOAD,2023-07-26 03:32:45,15.08843939,0.0001268,53.2164,162.6959,82.2017,277.9119,0.00011961,1.616e-05,0.0,0 STARLINK-4122,1 53272U 22086AG  23207.14774710  .00001616  00000-0  11961-3 0  9997,2 53272  53.2164 162.6959 0001268  82.2017 277.9119 15.08843939 56464,6917.868,95.437,540.611,538.856,0.0
53272.0,STARLINK-4122,PAYLOAD,2023-07-27 06:34:18,15.08836904,0.0001203,53.2164,157.6391,105.0039,255.1087,0.00024508,3.614e-05,0.0,0 STARLINK-4122,1 53272U 22086AG  23208.27382232  .00003614  00000-0  24508-3 0  9997,2 53272  53.2164 157.6391 0001203 105.0039 255.1087 15.08836904 56630,6917.89,95.438,540.587,538.923,0.0
53272.0,STARLINK-4122,PAYLOAD,2023-07-27 20:52:47,15.08831979,0.0001355,53.2172,154.9645,100.1909,259.9236,-8.486e-05,-1.638e-05,0.0,0 STARLINK-4122,1 53272U 22086AG  23208.86999860 -.00001638  00000-0 -84860-4 0  9997,2 53272  53.2172 154.9645 0001355 100.1909 259.9236 15.08831979 56906,6917.905,95.438,540.707,538.833,0.0
53272.0,STARLINK-4122,PAYLOAD,2023-07-28 00:03:34,15.08830307,0.0001382,53.2175,154.3697,102.8893,257.2254,-9.8151e-05,-1.849e-05,0.0,0 STARLINK-4122,1 53272U 22086AG  23209.00248036 -.00001849  00000-0 -98151-4 0  9998,2 53272  53.2175 154.3697 0001382 102.8893 257.2254 15.08830307 56748,6917.91,95.438,540.731,538.819,0.0
53272.0,STARLINK-4122,PAYLOAD,2023-07-28 04:49:43,15.08830913,0.0001352,53.2177,153.4777,103.2824,256.8319,-8.6535e-05,-1.664e-05,0.0,0 STARLINK-4122,1 53272U 22086AG  23209.20120064 -.00001664  00000-0 -86535-4 0  9998,2 53272  53.2177 153.4777 0001352 103.2824 256.8319 15.08830913 56958,6917.908,95.438,540.708,538.838,0.0
